CTC1_L_00259016-03
1 10062U 22951JJ  26075.70032407  .00000000  00000+0  00000-0 0  9990
2 10062  50.0000 180.0000 0000000   0.0000   0.0000 15.38683946    19
CTC1_L_00259016-04
1 10063U 25928IM  26075.70032407  .00000000  00000+0  00000-0 0  9998
2 10063  50.0000 180.0000 0000000   0.0000  90.0000 15.38683946    19
CTC1_L_00259017-01
1 10064U 26994PU  26075.70032407  .00000000  00000+0  00000-0 0  9993
2 10064  50.0000 192.0000 0000000   0.0000 192.0000 15.38683946    16
CTC1_L_00259017-02
1 10065U 23876UR  26075.70032407  .00000000  00000+0  00000-0 0  9990
2 10065  50.0000 192.0000 0000000   0.0000 282.0000 15.38683946    17
CTC1_L_00259017-03
1 10066U 23503JS  26075.70032407  .00000000  00000+0  00000-0 0  9998
2 10066  50.0000 192.0000 0000000   0.0000  12.0000 15.38683946    19
CTC1_L_00259017-04
1 10067U 25138JU  26075.70032407  .00000000  00000+0  00000-0 0  9995
2 10067  50.0000 192.0000 0000000   0.0000 102.0000 15.38683946    10
CTC1_L_00259018-01
1 10068U 24267YE  26075.70032407  .00000000  00000+0  00000-0 0  9998
2 10068  50.0000 204.0000 0000000   0.0000 204.0000 15.38683946    18
CTC1_L_00259018-02
1 10069U 25368VX  26075.70032407  .00000000  00000+0  00000-0 0  9992
2 10069  50.0000 204.0000 0000000   0.0000 294.0000 15.38683946    18
CTC1_L_00259018-03
1 10070U 23410TS  26075.70032407  .00000000  00000+0  00000-0 0  9990
2 10070  50.0000 204.0000 0000000   0.0000  24.0000 15.38683946    11
CTC1_L_00259018-04
1 10071U 24542NZ  26075.70032407  .00000000  00000+0  00000-0 0  9998
2 10071  50.0000 204.0000 0000000   0.0000 114.0000 15.38683946    12
CTC1_L_00259019-01
1 10072U 26297OH  26075.70032407  .00000000  00000+0  00000-0 0  9998
2 10072  50.0000 216.0000 0000000   0.0000 216.0000 15.38683946    19
CTC1_L_00259019-02
1 10073U 24195C   26075.70032407  .00000000  00000+0  00000-0 0  9994
2 10073  50.0000 216.0000 0000000   0.0000 306.0000 15.38683946    10
CTC1_L_00259019-03
1 10074U 22927RD  26075.70032407  .00000000  00000+0  00000-0 0  9996
2 10074  50.0000 216.0000 0000000   0.0000  36.0000 15.38683946    11
CTC1_L_00259019-04
1 10075U 23746QV  26075.70032407  .00000000  00000+0  00000-0 0  9997
2 10075  50.0000 216.0000 0000000   0.0000 126.0000 15.38683946    12
CTC1_L_00259020-01
1 10076U 25856KK  26075.70032407  .00000000  00000+0  00000-0 0  9992
2 10076  50.0000 228.0000 0000000   0.0000 228.0000 15.38683946    19
CTC1_L_00259020-02
1 10077U 24275QL  26075.70032407  .00000000  00000+0  00000-0 0  9997
2 10077  50.0000 228.0000 0000000   0.0000 318.0000 15.38683946    10
CTC1_L_00259020-03
1 10078U 23230W   26075.70032407  .00000000  00000+0  00000-0 0  9998
2 10078  50.0000 228.0000 0000000   0.0000  48.0000 15.38683946    11
CTC1_L_00259020-04
1 10079U 23043FZ  26075.70032407  .00000000  00000+0  00000-0 0  9991
2 10079  50.0000 228.0000 0000000   0.0000 138.0000 15.38683946    12
CTC1_L_00259021-01
1 10080U 25204YY  26075.70032407  .00000000  00000+0  00000-0 0  9994
2 10080  50.0000 240.0000 0000000   0.0000 240.0000 15.38683946    12
CTC1_L_00259021-02
1 10081U 22332UA  26075.70032407  .00000000  00000+0  00000-0 0  9994
2 10081  50.0000 240.0000 0000000   0.0000 330.0000 15.38683946    13
CTC1_L_00259021-03
1 10082U 22740OT  26075.70032407  .00000000  00000+0  00000-0 0  9998
2 10082  50.0000 240.0000 0000000   0.0000  60.0000 15.38683946    14
CTC1_L_00259021-04
1 10083U 26684UC  26075.70032407  .00000000  00000+0  00000-0 0  9990
2 10083  50.0000 240.0000 0000000   0.0000 150.0000 15.38683946    15
CTC1_L_00259022-01
1 10084U 22276K   26075.70032407  .00000000  00000+0  00000-0 0  9994
2 10084  50.0000 252.0000 0000000   0.0000 252.0000 15.38683946    12
CTC1_L_00259022-02
1 10085U 26134FA  26075.70032407  .00000000  00000+0  00000-0 0  9992
2 10085  50.0000 252.0000 0000000   0.0000 342.0000 15.38683946    13
CTC1_L_00259022-03
1 10086U 23109CC  26075.70032407  .00000000  00000+0  00000-0 0  9992
2 10086  50.0000 252.0000 0000000   0.0000  72.0000 15.38683946    14
CTC1_L_00259022-04
1 10087U 24678OP  26075.70032407  .00000000  00000+0  00000-0 0  9995
2 10087  50.0000 252.0000 0000000   0.0000 162.0000 15.38683946    15
CTC1_L_00259023-01
1 10088U 22147XE  26075.70032407  .00000000  00000+0  00000-0 0  9995
2 10088  50.0000 264.0000 0000000   0.0000 264.0000 15.38683946    12
CTC1_L_00259023-02
1 10089U 23493HS  26075.70032407  .00000000  00000+0  00000-0 0  9991
2 10089  50.0000 264.0000 0000000   0.0000 354.0000 15.38683946    13
CTC1_L_00259023-03
1 10090U 22639WZ  26075.70032407  .00000000  00000+0  00000-0 0  9994
2 10090  50.0000 264.0000 0000000   0.0000  84.0000 15.38683946    15
CTC1_L_00259023-04
1 10091U 26444CY  26075.70032407  .00000000  00000+0  00000-0 0  9993
2 10091  50.0000 264.0000 0000000   0.0000 174.0000 15.38683946    16
CTC1_L_00259024-01
1 10092U 23739PJ  26075.70032407  .00000000  00000+0  00000-0 0  9998
2 10092  50.0000 276.0000 0000000   0.0000 276.0000 15.38683946    13
CTC1_L_00259024-02
1 10093U 25595PA  26075.70032407  .00000000  00000+0  00000-0 0  9991
2 10093  50.0000 276.0000 0000000   0.0000   6.0000 15.38683946    15
CTC1_L_00259024-03
1 10094U 25372KX  26075.70032407  .00000000  00000+0  00000-0 0  9995
2 10094  50.0000 276.0000 0000000   0.0000  96.0000 15.38683946    15
CTC1_L_00259024-04
1 10095U 26664KA  26075.70032407  .00000000  00000+0  00000-0 0  9991
2 10095  50.0000 276.0000 0000000   0.0000 186.0000 15.38683946    16
CTC1_L_00259025-01
1 10096U 22349TP  26075.70032407  .00000000  00000+0  00000-0 0  9998
2 10096  50.0000 288.0000 0000000   0.0000 288.0000 15.38683946    13
CTC1_L_00259025-02
1 10097U 24093LQ  26075.70032407  .00000000  00000+0  00000-0 0  9997
2 10097  50.0000 288.0000 0000000   0.0000  18.0000 15.38683946    15
CTC1_L_00259025-03
1 10098U 25497WP  26075.70032407  .00000000  00000+0  00000-0 0  9997
2 10098  50.0000 288.0000 0000000   0.0000 108.0000 15.38683946    16
CTC1_L_00259025-04
1 10099U 23937YH  26075.70032407  .00000000  00000+0  00000-0 0  9995
2 10099  50.0000 288.0000 0000000   0.0000 198.0000 15.38683946    16
CTC1_L_00259026-01
1 10100U 25272IQ  26075.70032407  .00000000  00000+0  00000-0 0  9992
2 10100  50.0000 300.0000 0000000   0.0000 300.0000 15.38683946    19
CTC1_L_00259026-02
1 10101U 26541AJ  26075.70032407  .00000000  00000+0  00000-0 0  9993
2 10101  50.0000 300.0000 0000000   0.0000  30.0000 15.38683946    10
CTC1_L_00259026-03
1 10102U 22278OS  26075.70032407  .00000000  00000+0  00000-0 0  9997
2 10102  50.0000 300.0000 0000000   0.0000 120.0000 15.38683946    11
CTC1_L_00259026-04
1 10103U 23072SN  26075.70032407  .00000000  00000+0  00000-0 0  9991
2 10103  50.0000 300.0000 0000000   0.0000 210.0000 15.38683946    12
CTC1_L_00259027-01
1 10104U 26457LB  26075.70032407  .00000000  00000+0  00000-0 0  9992
2 10104  50.0000 312.0000 0000000   0.0000 312.0000 15.38683946    19
CTC1_L_00259027-02
1 10105U 25910FT  26075.70032407  .00000000  00000+0  00000-0 0  9996
2 10105  50.0000 312.0000 0000000   0.0000  42.0000 15.38683946    10
CTC1_L_00259027-03
1 10106U 23461UT  26075.70032407  .00000000  00000+0  00000-0 0  9996
2 10106  50.0000 312.0000 0000000   0.0000 132.0000 15.38683946    11
CTC1_L_00259027-04
1 10107U 26850CY  26075.70032407  .00000000  00000+0  00000-0 0  9992
2 10107  50.0000 312.0000 0000000   0.0000 222.0000 15.38683946    12
CTC1_L_00259028-01
1 10108U 24372LL  26075.70032407  .00000000  00000+0  00000-0 0  9990
2 10108  50.0000 324.0000 0000000   0.0000 324.0000 15.38683946    19
CTC1_L_00259028-02
1 10109U 22514GD  26075.70032407  .00000000  00000+0  00000-0 0  9997
2 10109  50.0000 324.0000 0000000   0.0000  54.0000 15.38683946    10
CTC1_L_00259028-03
1 10110U 23823PZ  26075.70032407  .00000000  00000+0  00000-0 0  9993
2 10110  50.0000 324.0000 0000000   0.0000 144.0000 15.38683946    12
CTC1_L_00259028-04
1 10111U 26309VY  26075.70032407  .00000000  00000+0  00000-0 0  9996
2 10111  50.0000 324.0000 0000000   0.0000 234.0000 15.38683946    13
CTC1_L_00259029-01
1 10112U 24657KF  26075.70032407  .00000000  00000+0  00000-0 0  9991
2 10112  50.0000 336.0000 0000000   0.0000 336.0000 15.38683946    10
CTC1_L_00259029-02
1 10113U 22790EP  26075.70032407  .00000000  00000+0  00000-0 0  9998
2 10113  50.0000 336.0000 0000000   0.0000  66.0000 15.38683946    11
CTC1_L_00259029-03
1 10114U 24505OC  26075.70032407  .00000000  00000+0  00000-0 0  9995
2 10114  50.0000 336.0000 0000000   0.0000 156.0000 15.38683946    12
CTC1_L_00259029-04
1 10115U 25544SI  26075.70032407  .00000000  00000+0  00000-0 0  9990
2 10115  50.0000 336.0000 0000000   0.0000 246.0000 15.38683946    13
CTC1_L_00259030-01
1 10116U 26599RS  26075.70032407  .00000000  00000+0  00000-0 0  9992
2 10116  50.0000 348.0000 0000000   0.0000 348.0000 15.38683946    10
CTC1_L_00259030-02
1 10117U 24118QQ  26075.70032407  .00000000  00000+0  00000-0 0  9998
2 10117  50.0000 348.0000 0000000   0.0000  78.0000 15.38683946    11
CTC1_L_00259030-03
1 10118U 26025LK  26075.70032407  .00000000  00000+0  00000-0 0  9998
2 10118  50.0000 348.0000 0000000   0.0000 168.0000 15.38683946    12
CTC1_L_00259030-04
1 10119U 23117DJ  26075.70032407  .00000000  00000+0  00000-0 0  9998
2 10119  50.0000 348.0000 0000000   0.0000 258.0000 15.38683946    13
